[{"OBJECT_NAME":"SMDC ONE 1.2","OBJECT_ID":"2012-048B","EPOCH":"2026-03-09T14:14:46.220928","MEAN_MOTION":15.19069434,"ECCENTRICITY":0.0110458,"INCLINATION":64.6579,"RA_OF_ASC_NODE":143.2061,"ARG_OF_PERICENTER":207.1808,"MEAN_ANOMALY":152.3511,"EPHEMERIS_TYPE":0,"CLASSIFICATION_TYPE":"U","NORAD_CAT_ID":38759,"ELEMENT_SET_NO":999,"REV_AT_EPOCH":10101,"BSTAR":0.00057078,"MEAN_MOTION_DOT":0.00013943,"MEAN_MOTION_DDOT":0},{"OBJECT_NAME":"STARLINK-31066","OBJECT_ID":"2023-211K","EPOCH":"2026-03-08T11:10:15.364704","MEAN_MOTION":15.26815036,"ECCENTRICITY":0.00057276,"INCLINATION":43.0016,"RA_OF_ASC_NODE":237.9691,"ARG_OF_PERICENTER":306.2936,"MEAN_ANOMALY":53.7386,"EPHEMERIS_TYPE":0,"CLASSIFICATION_TYPE":"U","NORAD_CAT_ID":58676,"ELEMENT_SET_NO":999,"REV_AT_EPOCH":12184,"BSTAR":0.00037151144,"MEAN_MOTION_DOT":9.744e-5,"MEAN_MOTION_DDOT":0}]
